STARLETTE               
1 07646U 75010A   23041.82561401 -.00000127  00000+0  12632-4 0  9991
2 07646  49.8224 249.3663 0205632 344.9896  14.4954 13.82316627425432
UOSAT 2 (UO-11)         
1 14781U 84021B   23042.69743492  .00003945  00000+0  47649-3 0  9994
2 14781  97.6445  24.6379 0006602 251.1967 108.8532 14.84279830 75526
LUSAT (LO-19)           
1 20442U 90005G   23042.64794441  .00000522  00000+0  20684-3 0  9997
2 20442  98.8289  16.5899 0011622 181.6639 178.4508 14.33163097727367
HST                     
1 20580U 90037B   23042.23779831  .00008034  00000+0  44636-3 0  9995
2 20580  28.4714  25.2843 0002505 102.0713 279.3217 15.11914401602379
LAGEOS 2                
1 22195U 92070B   23042.42485267 -.00000009  00000+0  00000+0 0  9994
2 22195  52.6731 318.7953 0138600  13.2643 121.1418  6.47293528716321
TDRS 6                  
1 22314U 93003B   23042.74363212 -.00000283  00000+0  00000+0 0  9998
2 22314  14.1444   6.0579 0007095 127.0153 230.2667  1.00270229110156
SCD 1                   
1 22490U 93009B   23042.79821306  .00001055  00000+0  24367-3 0  9990
2 22490  24.9683 181.3740 0042737 183.2204 339.7886 14.44815984584209
STELLA                  
1 22824U 93061B   23042.87511057 -.00000016  00000+0  12575-4 0  9993
2 22824  98.9451  74.6033 0006448 173.3975   4.6718 14.27398640530532
EYESAT A (AO-27)        
1 22825U 93061C   23042.84690836  .00000324  00000+0  14274-3 0  9992
2 22825  98.8602  83.6078 0009453  76.0809 284.1423 14.30243971532375
ITAMSAT (IO-26)         
1 22826U 93061D   23042.81170888  .00000365  00000+0  15754-3 0  9999
2 22826  98.8547  83.4387 0009893  63.6755 296.5442 14.30597617532631
USA 99 (MILSTAR-1 1)    
1 22988U 94009A   23042.59004594 -.00000188  00000+0  00000+0 0  9994
2 22988  15.7304  40.5928 0003688 279.7509 303.4997  1.00272150 19398
USA 107 (DSP 17)        
1 23435U 94084A   23042.46342899 -.00000153  00000+0  00000+0 0  9996
2 23435  14.5731   3.8592 0000853 306.3405 261.1779  1.00268572 20707
RADIO ROSTO (RS-15)     
1 23439U 94085A   23042.94886344 -.00000039  00000+0  10000-3 0  9990
2 23439  64.8179 118.2513 0166100 231.7619 126.8252 11.27573417158493
JAS-2 (FO-29)           
1 24278U 96046B   23042.85944912  .00000111  00000+0  14811-3 0  9991
2 24278  98.5182  38.5563 0350685  22.2135 339.3784 13.53131461307982
INMARSAT 3-F2           
1 24307U 96053A   23042.45537184 -.00000274  00000+0  00000+0 0  9999
2 24307   7.0592  65.1358 0004720 299.5035 247.5171  0.99992481 96705